Data used
----------
ATL-1_EA4GPZ_2019-12-06T20:13.dat
SMOG-P_EA4GPZ_2019-12-06T20:13.dat

SMOG-P
--------
Matches

44827 0.188 kHz 437.149233 MHz
44828 0.181 kHz 437.149265 MHz

ATL-1
--------
Matches

44827 0.140 kHz 437.174150 MHz
44828 0.133 kHz 437.174177 MHz

TLEs used
----------

0 TBA - TO BE ASSIGNED
1 44827U 19084D   19340.76941253 -.00000116  00000-0  00000+0 0  9999
2 44827  97.0021 204.9239 0040633 254.7833 170.2720 15.64175477    65
0 TBA - TO BE ASSIGNED
1 44828U 19084E   19340.77115836 -.00000116  00000-0  00000+0 0  9991
2 44828  96.9949 204.8975 0040709 259.9695 174.9167 15.64226684    58

